OBJECT_NAME,OBJECT_ID,EPOCH,MEAN_MOTION,ECCENTRICITY,INCLINATION,RA_OF_ASC_NODE,ARG_OF_PERICENTER,MEAN_ANOMALY,EPHEMERIS_TYPE,CLASSIFICATION_TYPE,NORAD_CAT_ID,ELEMENT_SET_NO,REV_AT_EPOCH,BSTAR,MEAN_MOTION_DOT,MEAN_MOTION_DDOT
INTELSAT 21 (IS-21),2012-045A,2026-06-20T05:42:37.160640,1.00272389,.00014685,0.0179,20.4891,80.1738,195.4425,0,U,38749,999,5055,0,-.29E-5,0
INTELSAT 23 (IS-23),2012-057A,2026-06-19T05:29:59.907840,1.00267375,.00001343,0.0099,325.5761,86.5042,244.8525,0,U,38867,999,4997,0,-.291E-5,0
FM-6,2013-058A,2026-06-20T05:26:03.450048,1.00271008,.0001399,0.0367,53.7634,119.2264,60.6673,0,U,39360,999,4610,0,0,0
INTELSAT 30 (IS-30),2014-062A,2026-06-20T03:49:21.257184,1.00256820,.00010173,0.0266,53.4926,9.4262,167.7293,0,U,40271,999,682,0,-.154E-5,0
DIRECTV 14,2014-078B,2026-06-20T05:31:38.559360,1.00270497,.00002612,0.0112,21.9759,292.9460,297.1910,0,U,40333,999,4207,0,-.13E-5,0
DIRECTV 15,2015-026A,2026-06-20T00:21:51.856128,1.00273256,.00002188,0.0158,57.5517,316.6058,156.6548,0,U,40663,999,4049,0,-.108E-5,0
SKY MEXICO-1,2015-026B,2026-06-20T05:15:38.683872,1.00272229,.00021487,0.0189,60.6267,44.8927,163.0223,0,U,40664,999,4048,0,-.239E-5,0
INTELSAT 34 (IS-34),2015-039A,2026-06-19T22:52:46.492032,1.00300971,.0001908,0.0091,6.4511,313.7582,235.6766,0,U,40874,999,3966,0,-.291E-5,0
INTELSAT 31 (IS-31),2016-035A,2026-06-19T22:41:25.884672,1.00271353,.00009291,0.0181,266.4038,350.7570,256.3060,0,U,41581,999,3671,0,-.156E-5,0
INTELSAT 36 (IS-36),2016-053A,2026-06-20T00:29:40.864704,1.00268779,.00023003,0.0114,8.6950,324.1758,11.2854,0,U,41747,999,3598,0,-.29E-6,0
INTELSAT 32E (IS-32E),2017-007B,2026-06-20T04:04:12.601056,1.00270661,.00006273,0.0183,13.4283,315.6456,317.1739,0,U,41945,999,3425,0,-.274E-5,0
INTELSAT 35E (IS-35E),2017-041A,2026-06-20T06:05:02.613408,1.00273121,.00021192,0.0184,31.7498,57.9673,235.5091,0,U,42818,999,3284,0,-.243E-5,0
INTELSAT 37E (IS-37E),2017-059A,2026-06-20T05:53:58.573248,1.00271121,.00026165,0.0178,18.6343,94.2328,226.0924,0,U,42950,999,3209,0,-.146E-5,0
AZERSPACE 2 (IS-38),2018-074A,2026-06-20T04:29:25.184256,1.00271425,.0001411,0.0176,12.5072,75.0400,293.3134,0,U,43632,999,2847,0,.132E-5,0
HORIZONS-3E,2018-074B,2026-06-19T20:31:26.550624,1.00267073,.00008931,0.0016,83.0794,215.5434,86.3125,0,U,43633,999,2836,0,-.37E-6,0
AT&T T-16,2019-034A,2026-06-20T05:31:38.559360,1.00268803,.00006393,0.0203,64.1948,220.8778,325.4230,0,U,44333,999,2566,0,-.12E-5,0
INTELSAT 39 (IS-39),2019-049B,2026-06-20T04:34:09.729696,1.00270937,.00009261,0.0124,350.8490,338.3370,69.7027,0,U,44476,999,2515,0,.29E-6,0
GALAXY 30 (G-30),2020-056C,2026-06-20T05:23:33.690336,1.00273017,.00022767,0.0184,12.1500,75.6010,136.5751,0,U,46114,999,2132,0,.32E-6,0
GALAXY 33 (G-33),2022-128A,2026-06-20T06:19:24.907872,1.00270594,.0001734,0.0221,54.0356,31.1965,145.0892,0,U,54026,999,1377,0,.74E-6,0
GALAXY 34 (G-34),2022-128B,2026-06-20T00:50:38.717376,1.00275411,.00017584,0.0124,53.5288,53.8534,44.5334,0,U,54027,999,1394,0,.53E-6,0
GALAXY 31 (G-31),2022-153A,2026-06-20T05:24:41.082336,1.00272126,.00011695,0.0250,88.2921,352.9233,147.3806,0,U,54243,999,716,0,.8E-7,0
GALAXY 32 (G-32),2022-153B,2026-06-20T05:33:04.082400,1.00271613,.00020751,0.0157,36.0739,1.5238,223.1141,0,U,54244,999,1317,0,-.179E-5,0
GALAXY 35 (G-35),2022-170A,2026-06-20T05:32:34.130112,1.00271923,.00018772,0.0180,76.1243,9.7848,172.5650,0,U,54741,999,1292,0,-.167E-5,0
GALAXY 36 (G-36),2022-170B,2026-06-20T03:51:06.088896,1.00272180,.00025966,0.0139,179.6276,264.1064,153.4147,0,U,54742,999,1280,0,-.19E-5,0
GALAXY 37 (G-37),2023-112A,2026-06-20T05:22:56.249760,1.00271425,.00020105,0.0005,357.3210,89.1523,135.6929,0,U,57493,999,1057,0,.43E-6,0
