INTELSAT 21 (IS-21)     
1 38749U 12045A   26171.23793010 -.00000290  00000+0  00000+0 0  9995
2 38749   0.0179  20.4891 0001468  80.1738 195.4425  1.00272389 50557
INTELSAT 23 (IS-23)     
1 38867U 12057A   26170.22916560 -.00000291  00000+0  00000+0 0  9995
2 38867   0.0099 325.5761 0000134  86.5042 244.8525  1.00267375 49974
FM-6                    
1 39360U 13058A   26171.22642882  .00000000  00000+0  00000+0 0  9997
2 39360   0.0367  53.7634 0001399 119.2264  60.6673  1.00271008 46102
INTELSAT 30 (IS-30)     
1 40271U 14062A   26171.15927381 -.00000154  00000+0  00000+0 0  9999
2 40271   0.0266  53.4926 0001017   9.4262 167.7293  1.00256820  6826
DIRECTV 14              
1 40333U 14078B   26171.23030740 -.00000130  00000+0  00000+0 0  9992
2 40333   0.0112  21.9759 0000261 292.9460 297.1910  1.00270497 42075
DIRECTV 15              
1 40663U 15026A   26171.01518352 -.00000108  00000+0  00000+0 0  9993
2 40663   0.0158  57.5517 0000218 316.6058 156.6548  1.00273256 40493
SKY MEXICO-1            
1 40664U 15026B   26171.21919773 -.00000239  00000+0  00000+0 0  9993
2 40664   0.0189  60.6267 0002148  44.8927 163.0223  1.00272229 40484
INTELSAT 34 (IS-34)     
1 40874U 15039A   26170.95331588 -.00000291  00000+0  00000+0 0  9990
2 40874   0.0091   6.4511 0001908 313.7582 235.6766  1.00300971 39669
INTELSAT 31 (IS-31)     
1 41581U 16035A   26170.94543848 -.00000156  00000+0  00000+0 0  9996
2 41581   0.0181 266.4038 0000929 350.7570 256.3060  1.00271353 36718
INTELSAT 36 (IS-36)     
1 41747U 16053A   26171.02061186 -.00000029  00000+0  00000+0 0  9999
2 41747   0.0114   8.6950 0002300 324.1758  11.2854  1.00268779 35980
INTELSAT 32E (IS-32E)   
1 41945U 17007B   26171.16959029 -.00000274  00000+0  00000+0 0  9998
2 41945   0.0183  13.4283 0000627 315.6456 317.1739  1.00270661 34251
INTELSAT 35E (IS-35E)   
1 42818U 17041A   26171.25350247 -.00000243  00000+0  00000+0 0  9999
2 42818   0.0184  31.7498 0002119  57.9673 235.5091  1.00273121 32849
INTELSAT 37E (IS-37E)   
1 42950U 17059A   26171.24581682 -.00000146  00000+0  00000+0 0  9995
2 42950   0.0178  18.6343 0002616  94.2328 226.0924  1.00271121 32090
AZERSPACE 2 (IS-38)     
1 43632U 18074A   26171.18709704  .00000132  00000+0  00000+0 0  9995
2 43632   0.0176  12.5072 0001411  75.0400 293.3134  1.00271425 28472
HORIZONS-3E             
1 43633U 18074B   26170.85516841 -.00000037  00000+0  00000+0 0  9992
2 43633   0.0016  83.0794 0000893 215.5434  86.3125  1.00267073 28363
AT&T T-16               
1 44333U 19034A   26171.23030740 -.00000120  00000+0  00000+0 0  9992
2 44333   0.0203  64.1948 0000639 220.8778 325.4230  1.00268803 25664
INTELSAT 39 (IS-39)     
1 44476U 19049B   26171.19039039  .00000029  00000+0  00000+0 0  9998
2 44476   0.0124 350.8490 0000926 338.3370  69.7027  1.00270937 25150
GALAXY 30 (G-30)        
1 46114U 20056C   26171.22469549  .00000032  00000+0  00000+0 0  9990
2 46114   0.0184  12.1500 0002276  75.6010 136.5751  1.00273017 21323
GALAXY 33 (G-33)        
1 54026U 22128A   26171.26348273  .00000074  00000+0  00000+0 0  9993
2 54026   0.0221  54.0356 0001734  31.1965 145.0892  1.00270594 13772
GALAXY 34 (G-34)        
1 54027U 22128B   26171.03517034  .00000053  00000+0  00000+0 0  9999
2 54027   0.0124  53.5288 0001758  53.8534  44.5334  1.00275411 13948
GALAXY 31 (G-31)        
1 54243U 22153A   26171.22547549  .00000008  00000+0  00000+0 0  9992
2 54243   0.0250  88.2921 0001169 352.9233 147.3806  1.00272126  7165
GALAXY 32 (G-32)        
1 54244U 22153B   26171.23129725 -.00000179  00000+0  00000+0 0  9996
2 54244   0.0157  36.0739 0002075   1.5238 223.1141  1.00271613 13172
GALAXY 35 (G-35)        
1 54741U 22170A   26171.23095058 -.00000167  00000+0  00000+0 0  9995
2 54741   0.0180  76.1243 0001877   9.7848 172.5650  1.00271923 12929
GALAXY 36 (G-36)        
1 54742U 22170B   26171.16048714 -.00000190  00000+0  00000+0 0  9991
2 54742   0.0139 179.6276 0002596 264.1064 153.4147  1.00272180 12807
GALAXY 37 (G-37)        
1 57493U 23112A   26171.22426215  .00000043  00000+0  00000+0 0  9993
2 57493   0.0005 357.3210 0002010  89.1523 135.6929  1.00271425 10577
